CCSDS_OMM_VERS = 2.0
CREATION_DATE  = 
ORIGINATOR     = 

OBJECT_NAME    = UNKNOWN
OBJECT_ID      = 
CENTER_NAME    = EARTH
REF_FRAME      = TEME
TIME_SYSTEM    = UTC
MEAN_ELEMENT_THEORY = SGP/SGP4

EPOCH          = 2026-01-18T15:19:58.335168
MEAN_MOTION    = 2.16233529
ECCENTRICITY   = .6157293
INCLINATION    = 22.4045
RA_OF_ASC_NODE = 170.0076
ARG_OF_PERICENTER = 73.6607
MEAN_ANOMALY   = 342.6241

EPHEMERIS_TYPE = 0
CLASSIFICATION_TYPE = U
NORAD_CAT_ID   = 84006
ELEMENT_SET_NO = 999
REV_AT_EPOCH   = 8502
BSTAR          = 0
MEAN_MOTION_DOT = .59E-6
MEAN_MOTION_DDOT = 0

CCSDS_OMM_VERS = 2.0
CREATION_DATE  = 
ORIGINATOR     = 

OBJECT_NAME    = UNKNOWN
OBJECT_ID      = 
CENTER_NAME    = EARTH
REF_FRAME      = TEME
TIME_SYSTEM    = UTC
MEAN_ELEMENT_THEORY = SGP/SGP4

EPOCH          = 2026-01-16T14:15:12.534048
MEAN_MOTION    = 7.83072346
ECCENTRICITY   = .3649138
INCLINATION    = 65.0686
RA_OF_ASC_NODE = 227.2548
ARG_OF_PERICENTER = 14.9236
MEAN_ANOMALY   = 353.5344

EPHEMERIS_TYPE = 0
CLASSIFICATION_TYPE = U
NORAD_CAT_ID   = 84188
ELEMENT_SET_NO = 999
REV_AT_EPOCH   = 4395
BSTAR          = .66553E-1
MEAN_MOTION_DOT = .1586E-2
MEAN_MOTION_DDOT = 0

CCSDS_OMM_VERS = 2.0
CREATION_DATE  = 
ORIGINATOR     = 

OBJECT_NAME    = UNKNOWN
OBJECT_ID      = 
CENTER_NAME    = EARTH
REF_FRAME      = TEME
TIME_SYSTEM    = UTC
MEAN_ELEMENT_THEORY = SGP/SGP4

EPOCH          = 2026-01-18T07:58:56.416224
MEAN_MOTION    = 3.18318254
ECCENTRICITY   = .6553355
INCLINATION    = 20.3099
RA_OF_ASC_NODE = 253.0600
ARG_OF_PERICENTER = 102.4483
MEAN_ANOMALY   = 333.0357

EPHEMERIS_TYPE = 0
CLASSIFICATION_TYPE = U
NORAD_CAT_ID   = 84232
ELEMENT_SET_NO = 999
REV_AT_EPOCH   = 10585
BSTAR          = .14858E-1
MEAN_MOTION_DOT = .18218E-3
MEAN_MOTION_DDOT = 0

CCSDS_OMM_VERS = 2.0
CREATION_DATE  = 
ORIGINATOR     = 

OBJECT_NAME    = UNKNOWN
OBJECT_ID      = 
CENTER_NAME    = EARTH
REF_FRAME      = TEME
TIME_SYSTEM    = UTC
MEAN_ELEMENT_THEORY = SGP/SGP4

EPOCH          = 2026-01-08T06:06:25.640352
MEAN_MOTION    = 2.62563797
ECCENTRICITY   = .689372
INCLINATION    = 9.4181
RA_OF_ASC_NODE = 323.3148
ARG_OF_PERICENTER = 117.7230
MEAN_ANOMALY   = 326.7545

EPHEMERIS_TYPE = 0
CLASSIFICATION_TYPE = U
NORAD_CAT_ID   = 84236
ELEMENT_SET_NO = 999
REV_AT_EPOCH   = 11467
BSTAR          = .37931E-2
MEAN_MOTION_DOT = .478E-5
MEAN_MOTION_DDOT = 0

CCSDS_OMM_VERS = 2.0
CREATION_DATE  = 
ORIGINATOR     = 

OBJECT_NAME    = UNKNOWN
OBJECT_ID      = 
CENTER_NAME    = EARTH
REF_FRAME      = TEME
TIME_SYSTEM    = UTC
MEAN_ELEMENT_THEORY = SGP/SGP4

EPOCH          = 2026-01-17T12:40:27.074496
MEAN_MOTION    = 6.21787762
ECCENTRICITY   = .4562726
INCLINATION    = 23.8229
RA_OF_ASC_NODE = 110.7784
ARG_OF_PERICENTER = 326.2180
MEAN_ANOMALY   = 11.6771

EPHEMERIS_TYPE = 0
CLASSIFICATION_TYPE = U
NORAD_CAT_ID   = 84292
ELEMENT_SET_NO = 999
REV_AT_EPOCH   = 23029
BSTAR          = .21266E-2
MEAN_MOTION_DOT = .3816E-4
MEAN_MOTION_DDOT = 0

CCSDS_OMM_VERS = 2.0
CREATION_DATE  = 
ORIGINATOR     = 

OBJECT_NAME    = UNKNOWN
OBJECT_ID      = 
CENTER_NAME    = EARTH
REF_FRAME      = TEME
TIME_SYSTEM    = UTC
MEAN_ELEMENT_THEORY = SGP/SGP4

EPOCH          = 2026-01-08T05:15:04.591296
MEAN_MOTION    = 12.67381377
ECCENTRICITY   = .0042055
INCLINATION    = 101.7141
RA_OF_ASC_NODE = 157.7019
ARG_OF_PERICENTER = 340.3466
MEAN_ANOMALY   = 199.3092

EPHEMERIS_TYPE = 0
CLASSIFICATION_TYPE = U
NORAD_CAT_ID   = 84406
ELEMENT_SET_NO = 999
REV_AT_EPOCH   = 5264
BSTAR          = .43231E-2
MEAN_MOTION_DOT = .785E-5
MEAN_MOTION_DDOT = 0

CCSDS_OMM_VERS = 2.0
CREATION_DATE  = 
ORIGINATOR     = 

OBJECT_NAME    = UNKNOWN
OBJECT_ID      = 
CENTER_NAME    = EARTH
REF_FRAME      = TEME
TIME_SYSTEM    = UTC
MEAN_ELEMENT_THEORY = SGP/SGP4

EPOCH          = 2026-01-16T22:09:35.551296
MEAN_MOTION    = 2.05777016
ECCENTRICITY   = .7202436
INCLINATION    = 19.4644
RA_OF_ASC_NODE = 312.1530
ARG_OF_PERICENTER = 80.6851
MEAN_ANOMALY   = 347.5491

EPHEMERIS_TYPE = 0
CLASSIFICATION_TYPE = U
NORAD_CAT_ID   = 84407
ELEMENT_SET_NO = 999
REV_AT_EPOCH   = 7659
BSTAR          = .12077E-1
MEAN_MOTION_DOT = .26E-5
MEAN_MOTION_DDOT = 0

CCSDS_OMM_VERS = 2.0
CREATION_DATE  = 
ORIGINATOR     = 

OBJECT_NAME    = UNKNOWN
OBJECT_ID      = 
CENTER_NAME    = EARTH
REF_FRAME      = TEME
TIME_SYSTEM    = UTC
MEAN_ELEMENT_THEORY = SGP/SGP4

EPOCH          = 2026-01-18T16:21:34.855488
MEAN_MOTION    = 2.19881415
ECCENTRICITY   = .7104505
INCLINATION    = 18.0546
RA_OF_ASC_NODE = 146.3005
ARG_OF_PERICENTER = 44.8612
MEAN_ANOMALY   = 353.9722

EPHEMERIS_TYPE = 0
CLASSIFICATION_TYPE = U
NORAD_CAT_ID   = 84575
ELEMENT_SET_NO = 999
REV_AT_EPOCH   = 6627
BSTAR          = -.11972E-1
MEAN_MOTION_DOT = -.262E-5
MEAN_MOTION_DDOT = 0

CCSDS_OMM_VERS = 2.0
CREATION_DATE  = 
ORIGINATOR     = 

OBJECT_NAME    = UNKNOWN
OBJECT_ID      = 
CENTER_NAME    = EARTH
REF_FRAME      = TEME
TIME_SYSTEM    = UTC
MEAN_ELEMENT_THEORY = SGP/SGP4

EPOCH          = 2026-01-18T13:03:59.547744
MEAN_MOTION    = 3.00023627
ECCENTRICITY   = .6578181
INCLINATION    = 2.0280
RA_OF_ASC_NODE = 221.8651
ARG_OF_PERICENTER = 97.4369
MEAN_ANOMALY   = 111.5062

EPHEMERIS_TYPE = 0
CLASSIFICATION_TYPE = U
NORAD_CAT_ID   = 84932
ELEMENT_SET_NO = 999
REV_AT_EPOCH   = 13288
BSTAR          = .68501E-2
MEAN_MOTION_DOT = .852E-5
MEAN_MOTION_DDOT = 0

CCSDS_OMM_VERS = 2.0
CREATION_DATE  = 
ORIGINATOR     = 

OBJECT_NAME    = UNKNOWN
OBJECT_ID      = 
CENTER_NAME    = EARTH
REF_FRAME      = TEME
TIME_SYSTEM    = UTC
MEAN_ELEMENT_THEORY = SGP/SGP4

EPOCH          = 2026-01-17T16:33:36.036288
MEAN_MOTION    = 14.41180709
ECCENTRICITY   = .0048089
INCLINATION    = 98.4258
RA_OF_ASC_NODE = 353.2031
ARG_OF_PERICENTER = 55.1385
MEAN_ANOMALY   = 127.1278

EPHEMERIS_TYPE = 0
CLASSIFICATION_TYPE = U
NORAD_CAT_ID   = 85004
ELEMENT_SET_NO = 999
REV_AT_EPOCH   = 63607
BSTAR          = .28594E-3
MEAN_MOTION_DOT = .892E-5
MEAN_MOTION_DDOT = 0

CCSDS_OMM_VERS = 2.0
CREATION_DATE  = 
ORIGINATOR     = 

OBJECT_NAME    = UNKNOWN
OBJECT_ID      = 
CENTER_NAME    = EARTH
REF_FRAME      = TEME
TIME_SYSTEM    = UTC
MEAN_ELEMENT_THEORY = SGP/SGP4

EPOCH          = 2026-01-18T10:37:02.370720
MEAN_MOTION    = 13.75138132
ECCENTRICITY   = .0024734
INCLINATION    = 99.2497
RA_OF_ASC_NODE = 244.2298
ARG_OF_PERICENTER = 155.4998
MEAN_ANOMALY   = 330.5672

EPHEMERIS_TYPE = 0
CLASSIFICATION_TYPE = U
NORAD_CAT_ID   = 85010
ELEMENT_SET_NO = 999
REV_AT_EPOCH   = 60896
BSTAR          = .10237E-2
MEAN_MOTION_DOT = .939E-5
MEAN_MOTION_DDOT = 0

CCSDS_OMM_VERS = 2.0
CREATION_DATE  = 
ORIGINATOR     = 

OBJECT_NAME    = UNKNOWN
OBJECT_ID      = 
CENTER_NAME    = EARTH
REF_FRAME      = TEME
TIME_SYSTEM    = UTC
MEAN_ELEMENT_THEORY = SGP/SGP4

EPOCH          = 2026-01-18T13:52:53.290848
MEAN_MOTION    = 14.62341269
ECCENTRICITY   = .0016219
INCLINATION    = 74.0505
RA_OF_ASC_NODE = 327.7045
ARG_OF_PERICENTER = 228.6878
MEAN_ANOMALY   = 131.2894

EPHEMERIS_TYPE = 0
CLASSIFICATION_TYPE = U
NORAD_CAT_ID   = 85015
ELEMENT_SET_NO = 999
REV_AT_EPOCH   = 64799
BSTAR          = .98492E-4
MEAN_MOTION_DOT = .468E-5
MEAN_MOTION_DDOT = 0

