UNKNOWN                 
1 84006U          26018.63886962  .00000059  00000+0  00000+0 0  9995
2 84006  22.4045 170.0076 6157293  73.6607 342.6241  2.16233529 85020
UNKNOWN                 
1 84188U          26016.59389507  .00158600  00000+0  66553-1 0  9995
2 84188  65.0686 227.2548 3649138  14.9236 353.5344  7.83072346 43959
UNKNOWN                 
1 84232U          26018.33259741  .00018218  00000+0  14858-1 0  9996
2 84232  20.3099 253.0600 6553355 102.4483 333.0357  3.18318254105852
UNKNOWN                 
1 84236U          26008.25446343  .00000478  00000+0  37931-2 0  9993
2 84236   9.4181 323.3148 6893720 117.7230 326.7545  2.62563797114676
UNKNOWN                 
1 84292U          26017.52809114  .00003816  00000+0  21266-2 0  9997
2 84292  23.8229 110.7784 4562726 326.2180  11.6771  6.21787762230290
UNKNOWN                 
1 84406U          26008.21880314  .00000785  00000+0  43231-2 0  9999
2 84406 101.7141 157.7019 0042055 340.3466 199.3092 12.67381377 52646
UNKNOWN                 
1 84407U          26016.92332814  .00000260  00000+0  12077-1 0  9995
2 84407  19.4644 312.1530 7202436  80.6851 347.5491  2.05777016 76595
UNKNOWN                 
1 84575U          26018.68165342 -.00000262  00000+0 -11972-1 0  9993
2 84575  18.0546 146.3005 7104505  44.8612 353.9722  2.19881415 66272
UNKNOWN                 
1 84932U          26018.54443921  .00000852  00000+0  68501-2 0  9991
2 84932   2.0280 221.8651 6578181  97.4369 111.5062  3.00023627132880
UNKNOWN                 
1 85004U          26017.69000042  .00000892  00000+0  28594-3 0  9993
2 85004  98.4258 353.2031 0048089  55.1385 127.1278 14.41180709636073
UNKNOWN                 
1 85010U          26018.44238855  .00000939  00000+0  10237-2 0  9995
2 85010  99.2497 244.2298 0024734 155.4998 330.5672 13.75138132608967
UNKNOWN                 
1 85015U          26018.57839457  .00000468  00000+0  98492-4 0  9997
2 85015  74.0505 327.7045 0016219 228.6878 131.2894 14.62341269647991
